OBJECT_NAME,OBJECT_ID,EPOCH,MEAN_MOTION,ECCENTRICITY,INCLINATION,RA_OF_ASC_NODE,ARG_OF_PERICENTER,MEAN_ANOMALY,EPHEMERIS_TYPE,CLASSIFICATION_TYPE,NORAD_CAT_ID,ELEMENT_SET_NO,REV_AT_EPOCH,BSTAR,MEAN_MOTION_DOT,MEAN_MOTION_DDOT
ONEWEB-0365,2021-090N,2026-06-11T15:38:59.525376,13.19724749,.00017814,87.9172,306.0689,99.5302,260.6033,0,U,49291,999,22569,.18766443E-3,.88E-6,0
ONEWEB-0366,2021-090P,2026-06-11T15:37:21.139968,13.14502478,.00019344,87.8959,290.8101,100.2698,259.8650,0,U,49292,999,22683,.57656815E-3,.227E-5,0
ONEWEB-0367,2021-090Q,2026-06-11T13:22:19.108704,13.20778274,.0001901,87.9194,275.5620,104.0201,256.1144,0,U,49293,999,22908,-.30941659E-2,-.1245E-4,0
ONEWEB-0368,2021-090R,2026-06-11T14:33:48.370176,13.20769666,.00015655,87.9179,275.5634,80.7141,279.4169,0,U,49294,999,23024,-.16089061E-3,-.52E-6,0
ONEWEB-0369,2021-090S,2026-06-11T10:04:38.680032,13.19724970,.00017759,87.9164,306.1233,96.8608,263.2727,0,U,49295,999,22565,.20688078E-3,.96E-6,0
ONEWEB-0370,2021-090T,2026-06-11T13:35:37.922496,13.20770419,.00021376,87.9191,275.5602,106.9342,253.2026,0,U,49296,999,22912,.23927947E-3,.11E-5,0
ONEWEB-0371,2021-090U,2026-06-11T15:43:32.126880,13.19724481,.00018103,87.9173,306.0684,101.0768,259.0568,0,U,49297,999,22572,.20719911E-3,.96E-6,0
ONEWEB-0372,2021-090V,2026-06-11T13:20:53.324736,13.20771671,.00019405,87.9192,275.5639,101.1900,258.9452,0,U,49298,999,22909,.15826081E-3,.77E-6,0
ONEWEB-0373,2021-090W,2026-06-11T13:57:27.687744,13.20771358,.00020602,87.9190,275.5594,100.7605,259.3760,0,U,49299,999,23028,.26238285E-3,.12E-5,0
ONEWEB-0374,2021-090X,2026-06-11T15:19:05.127456,13.14503286,.00022571,87.8963,290.8033,86.6873,273.4515,0,U,49300,999,22683,.37067038E-3,.15E-5,0
ONEWEB-0375,2021-090Y,2026-06-11T08:13:13.836864,13.20771479,.0002391,87.9191,275.5985,90.0301,270.1106,0,U,49301,999,22975,.22629006E-3,.105E-5,0
ONEWEB-0376,2021-090Z,2026-06-11T15:41:15.816192,13.19724935,.00016623,87.9172,306.0686,99.1530,260.9791,0,U,49302,999,22572,.17227969E-3,.82E-6,0
ONEWEB-0377,2021-090AA,2026-06-11T13:21:18.379872,13.20772432,.00021886,87.9192,275.5578,99.8959,260.2421,0,U,49303,999,22977,.11376541E-3,.59E-6,0
ONEWEB-0378,2021-090AB,2026-06-11T08:23:06.407808,13.20770593,.00020075,87.9188,275.6044,96.3148,263.8214,0,U,49304,999,22901,.90925091E-4,.5E-6,0
ONEWEB-0379,2021-090AC,2026-06-11T15:12:13.548960,13.14502956,.00019161,87.8962,290.8150,96.0221,264.1127,0,U,49305,999,22683,.3760179E-4,.27E-6,0
ONEWEB-0380,2021-090AD,2026-06-11T15:36:43.643232,13.19724612,.00020645,87.9165,306.0748,97.6543,262.4824,0,U,49306,999,22569,.17231E-3,.82E-6,0
ONEWEB-0381,2021-090AE,2026-06-11T13:16:15.419136,13.20772314,.00021238,87.9192,275.5632,93.8328,266.3048,0,U,49307,999,22908,.16385255E-3,.8E-6,0
ONEWEB-0382,2021-090AF,2026-06-11T14:45:55.592928,13.20770074,.00020451,87.9190,275.5450,91.8585,268.2782,0,U,49308,999,22908,-.19155095E-4,.5E-7,0
ONEWEB-0383,2021-090AG,2026-06-11T15:03:03.962880,13.14502461,.00018467,87.8965,290.8074,95.1159,265.0182,0,U,49309,999,22686,-.87665111E-3,-.312E-5,0
ONEWEB-0384,2021-090AH,2026-06-11T14:29:49.855200,13.20812234,.00020568,87.9194,275.5909,86.7951,273.3417,0,U,49310,999,22909,.99363575E-4,.53E-6,0
ONEWEB-0385,2021-090AJ,2026-06-11T14:36:15.388416,13.20772452,.00020457,87.9190,275.5517,94.8501,265.2866,0,U,49311,999,22906,-.8672933E-4,-.22E-6,0
ONEWEB-0386,2021-090AK,2026-06-11T07:44:08.342592,13.20771386,.00019677,87.9195,275.5993,92.5686,267.5673,0,U,49312,999,22904,.11676113E-3,.6E-6,0
ONEWEB-0387,2021-090AL,2026-06-11T14:38:40.808256,13.20772297,.00023207,87.9180,275.5650,98.0278,262.1119,0,U,49313,999,22908,-.45097477E-4,-.5E-7,0
ONEWEB-0388,2021-090AM,2026-06-11T15:29:54.236832,13.19725096,.00018866,87.9164,306.0737,93.5397,266.5951,0,U,49314,999,22568,.16194578E-3,.78E-6,0
ONEWEB-0389,2021-132A,2026-06-11T13:54:23.536512,13.17648392,.00021828,87.9135,6.9836,83.0977,277.0403,0,U,50469,999,21734,.31580239E-4,.25E-6,0
ONEWEB-0390,2021-132B,2026-06-11T13:56:49.296768,13.17648568,.00019194,87.9136,6.9842,93.5493,266.5858,0,U,50470,999,21734,.12477599E-3,.61E-6,0
ONEWEB-0391,2021-132C,2026-06-11T13:59:15.212544,13.17648134,.00026775,87.9137,6.9935,88.7850,271.3588,0,U,50471,999,21734,.47634225E-4,.31E-6,0
ONEWEB-0392,2021-132D,2026-06-11T14:43:00.186240,13.17648888,.00022597,87.9145,6.9557,84.8026,275.3363,0,U,50472,999,21738,.16911626E-3,.79E-6,0
ONEWEB-0393,2021-132E,2026-06-11T14:07:45.759648,13.17649622,.0002033,87.9136,6.9779,85.2665,274.8699,0,U,50473,999,21737,.66283693E-4,.39E-6,0
ONEWEB-0394,2021-132F,2026-06-11T11:35:51.981792,13.18685133,.00020222,87.9168,336.5769,87.5676,272.5688,0,U,50474,999,22084,.10405713E-3,.54E-6,0
